58390,STARLINK-30868,2023,93.86,-1.0,+,53.16,Active,0,LEO,USA,USA,Unknown,Unknown,Unknown,1 58390U 23178S   24279.13686364  .00001281  00000+0  49311-4 0  9990,2 58390  53.1591 260.3200 0001481 104.8409 255.2757 15.34218137 50164,15.34218137,0.0001481,LEO
58391,STARLINK-30916,2023,93.86,-1.0,+,53.16,Active,0,LEO,USA,USA,Unknown,Unknown,Unknown,1 58391U 23178T   24279.24350291 -.00001213  00000+0 -24941-4 0  9999,2 58391  53.1579 259.4659 0001313  95.4584 264.6569 15.34214370 50194,15.3421437,0.0001313,LEO
58392,STARLINK-30937,2023,93.86,-1.0,+,53.16,Active,0,LEO,USA,USA,Unknown,Unknown,Unknown,1 58392U 23178U   24279.22951852  .00003910  00000+0  12741-3 0  9996,2 58392  53.1593 259.3877 0001637  86.3214 273.7976 15.34244317 50197,15.34244317,0.0001637,LEO
58393,STARLINK-30939,2023,93.86,-1.0,+,53.16,Active,0,LEO,USA,USA,Unknown,Unknown,Unknown,1 58393U 23178V   24279.35559102  .00002486  00000+0  85144-4 0  9998,2 58393  53.1593 259.5525 0001391  82.0972 278.0188 15.34217686 50036,15.34217686,0.0001391,LEO
58394,STARLINK-30887,2023,93.86,-1.0,+,53.16,Active,0,LEO,USA,USA,Unknown,Unknown,Unknown,1 58394U 23178W   24279.16944958  .00002458  00000+0  84289-4 0  9993,2 58394  53.1589 260.3512 0001426  94.6641 265.4524 15.34232884 50153,15.34232884,0.0001426,LEO
58395,STARLINK-30934,2023,93.86,-1.0,+,53.16,Active,0,LEO,USA,USA,Unknown,Unknown,Unknown,1 58395U 23178X   24279.22489353 -.00000906  00000+0 -15789-4 0  9991,2 58395  53.1596 259.5234 0001413  82.3518 277.7645 15.34217553 50129,15.34217553,0.0001413,LEO
58400,MALLIGYONG-1,2023,94.67,-1.0,+,97.39,Active,0,LEO,Democratic People's Republic of Korea,North Korea,Unknown,Unknown,Unknown,1 58400U 23179A   24279.53808704  .00013856  00000+0  62482-3 0  9995,2 58400  97.3847 164.4602 0010026  55.7195 304.4989 15.21089848 48501,15.21089848,0.0010026,LEO
58402,STARLINK-30964,2023,95.84,-1.0,+,43.0,Active,0,LEO,USA,USA,Unknown,Unknown,Unknown,1 58402U 23180A   24279.53413619 -.00001171  00000+0 -71641-4 0  9993,2 58402  43.0033   2.1109 0001289 252.7500 107.3201 15.02537262 49356,15.02537262,0.0001289,LEO
58403,STARLINK-30844,2023,95.84,-1.0,+,43.01,Active,0,LEO,USA,USA,Unknown,Unknown,Unknown,1 58403U 23180B   24278.59357841  .00000462  00000+0  49280-4 0  9997,2 58403  43.0039   7.9565 0001426 266.6905  93.3775 15.02541927 49081,15.02541927,0.0001426,LEO
58404,STARLINK-30876,2023,95.84,-1.0,+,43.0,Active,0,LEO,USA,USA,Unknown,Unknown,Unknown,1 58404U 23180C   24279.52095124 -.00000598  00000+0 -29184-4 0  9998,2 58404  43.0096   2.8730 0002887 267.1070  92.9442 15.02521502 49346,15.02521502,0.0002887,LEO
58405,STARLINK-30952,2023,95.84,-1.0,+,43.0,Active,0,LEO,USA,USA,Unknown,Unknown,Unknown,1 58405U 23180D   24279.51761273  .00002712  00000+0  21579-3 0  9990,2 58405  43.0077   2.8446 0002058 271.4358  88.6248 15.02527277 49247,15.02527277,0.0002058,LEO
58406,STARLINK-30925,2023,95.84,-1.0,+,43.0,Active,0,LEO,USA,USA,Unknown,Unknown,Unknown,1 58406U 23180E   24279.51427780  .00001565  00000+0  13089-3 0  9995,2 58406  43.0030   2.8189 0000575 250.6489 109.4291 15.02537226 49242,15.02537226,5.75e-05,LEO
58407,STARLINK-30954,2023,95.84,-1.0,+,43.0,Active,0,LEO,USA,USA,Unknown,Unknown,Unknown,1 58407U 23180F   24279.53080649  .00003304  00000+0  25948-3 0  9997,2 58407  43.0027   2.0890 0000606 139.0282 221.0606 15.02541238 49357,15.02541238,6.06e-05,LEO
58408,STARLINK-30906,2023,95.84,-1.0,+,43.0,Active,0,LEO,USA,USA,Unknown,Unknown,Unknown,1 58408U 23180G   24279.53758936 -.00002724  00000+0 -18676-3 0  9996,2 58408  43.0073   2.8296 0002566 276.1540  83.9010 15.02510236 48979,15.02510236,0.0002566,LEO
58409,STARLINK-30940,2023,94.37,-1.0,P,43.0,Active,0,LEO,USA,USA,Unknown,Unknown,Unknown,1 58409U 23180H   24279.42266829  .00000981  00000+0  47336-4 0  9997,2 58409  42.9981 319.6057 0001605 287.5574  72.5102 15.25924577 49841,15.25924577,0.0001605,LEO
58410,STARLINK-30933,2023,94.37,-1.0,+,43.0,Active,0,LEO,USA,USA,Unknown,Unknown,Unknown,1 58410U 23180J   24279.48614512 -.00011560  00000+0 -43323-3 0  9999,2 58410  43.0024 320.9397 0000661 240.9355 119.1430 15.25876028 49834,15.25876028,6.61e-05,LEO
58411,STARLINK-30919,2023,95.84,-1.0,+,43.0,Active,0,LEO,USA,USA,Unknown,Unknown,Unknown,1 58411U 23180K   24279.21037854 -.00000418  00000+0 -15877-4 0  9993,2 58411  43.0058   3.0589 0001389 282.7274  77.3413 15.02534099 49229,15.02534099,0.0001389,LEO
58412,STARLINK-30924,2023,94.37,-1.0,P,43.0,Active,0,LEO,USA,USA,Unknown,Unknown,Unknown,1 58412U 23180L   24279.48387120  .00002985  00000+0  12382-3 0  9993,2 58412  43.0016 320.9139 0001536 266.5127  93.5548 15.25930851 49823,15.25930851,0.0001536,LEO
58413,STARLINK-30931,2023,95.84,-1.0,+,43.0,Active,0,LEO,USA,USA,Unknown,Unknown,Unknown,1 58413U 23180M   24278.52625575 -.00000525  00000+0 -23749-4 0  9997,2 58413  43.0025 355.4559 0001170 286.9157  73.1557 15.02560140 49331,15.0256014,0.000117,LEO
58414,STARLINK-30922,2023,95.82,-1.0,+,43.0,Active,0,LEO,USA,USA,Unknown,Unknown,Unknown,1 58414U 23180N   24279.29452974  .00056981  00000+0  41560-2 0  9998,2 58414  43.0018   3.7536 0000846 282.9632  77.1116 15.02924517 49310,15.02924517,8.46e-05,LEO
58415,STARLINK-30949,2023,95.84,-1.0,+,43.0,Active,0,LEO,USA,USA,Unknown,Unknown,Unknown,1 58415U 23180P   24279.23171585  .00000396  00000+0  44354-4 0  9994,2 58415  43.0014   4.1153 0000534 279.7558  80.3224 15.02536015 49309,15.02536015,5.34e-05,LEO
58416,STARLINK-30967,2023,95.84,-1.0,+,43.0,Active,0,LEO,USA,USA,Unknown,Unknown,Unknown,1 58416U 23180Q   24279.50095592 -.00009947  00000+0 -72281-3 0  9990,2 58416  43.0034   2.7035 0001827 263.7202  96.3432 15.02508973 49333,15.02508973,0.0001827,LEO
58417,STARLINK-30955,2023,95.84,-1.0,+,43.0,Active,0,LEO,USA,USA,Unknown,Unknown,Unknown,1 58417U 23180R   24279.54079574  .00002004  00000+0  16338-3 0  9993,2 58417  43.0040   2.1454 0002823 284.9944  75.0585 15.02540173 49347,15.02540173,0.0002823,LEO
58418,STARLINK-30895,2023,95.84,-1.0,+,43.0,Active,0,LEO,USA,USA,Unknown,Unknown,Unknown,1 58418U 23180S   24279.48763653  .00004932  00000+0  37982-3 0  9995,2 58418  43.0040   2.6182 0001307 248.0009 112.0694 15.02544922 49248,15.02544922,0.0001307,LEO
58419,STARLINK-30917,2023,95.84,-1.0,+,43.0,Active,0,LEO,USA,USA,Unknown,Unknown,Unknown,1 58419U 23180T   24279.28486040  .00015862  00000+0  11855-2 0  9990,2 58419  43.0043   3.6014 0001421 278.7328  81.3354 15.02571590 49307,15.0257159,0.0001421,LEO
58420,STARLINK-30899,2023,95.84,-1.0,+,43.0,Active,0,LEO,USA,USA,Unknown,Unknown,Unknown,1 58420U 23180U   24279.54746566 -.00000013  00000+0  14125-4 0  9991,2 58420  43.0032   2.2112 0001835 264.4548  95.6085 15.02519707 49251,15.02519707,0.0001835,LEO
58421,STARLINK-30902,2023,95.84,-1.0,+,43.0,Active,0,LEO,USA,USA,Unknown,Unknown,Unknown,1 58421U 23180V   24279.52746629 -.00001160  00000+0 -70806-4 0  9993,2 58421  43.0030   2.0563 0000151 285.8986  74.1840 15.02559937 49251,15.02559937,1.51e-05,LEO
58422,STARLINK-30912,2023,94.37,-1.0,P,43.01,Active,0,LEO,USA,USA,Unknown,Unknown,Unknown,1 58422U 23180W   24279.19157005  .00000622  00000+0  33631-4 0  9996,2 58422  43.0010 327.2687 0001094 209.4876 150.5913 15.25879601 49973,15.25879601,0.0001094,LEO
58423,STARLINK-30900,2023,95.84,-1.0,+,43.0,Active,0,LEO,USA,USA,Unknown,Unknown,Unknown,1 58423U 23180X   24279.29152269  .00006010  00000+0  45938-3 0  9994,2 58423  43.0008   3.6760 0003851 293.0748  66.9688 15.02549449 49213,15.02549449,0.0003851,LEO
58424,STARLINK-30908,2023,95.84,-1.0,+,43.01,Active,0,LEO,USA,USA,Unknown,Unknown,Unknown,1 58424U 23180Y   24279.53943205  .00002773  00000+0  22025-3 0  9994,2 58424  43.0028   1.2067 0001819 291.7344  68.3305 15.02537680 49350,15.0253768,0.0001819,LEO
