OBJECT_NAME,OBJECT_ID,EPOCH,MEAN_MOTION,ECCENTRICITY,INCLINATION,RA_OF_ASC_NODE,ARG_OF_PERICENTER,MEAN_ANOMALY,EPHEMERIS_TYPE,CLASSIFICATION_TYPE,NORAD_CAT_ID,ELEMENT_SET_NO,REV_AT_EPOCH,BSTAR,MEAN_MOTION_DOT,MEAN_MOTION_DDOT
STARLINK-30868,2023-178S,2024-10-05T03:17:05.018496,15.34218137,.0001481,53.1591,260.3200,104.8409,255.2757,0,U,58390,999,5016,.49311E-4,.1281E-4,0
STARLINK-30916,2023-178T,2024-10-05T05:50:38.651424,15.34214370,.0001313,53.1579,259.4659,95.4584,264.6569,0,U,58391,999,5019,-.24941E-4,-.1213E-4,0
STARLINK-30937,2023-178U,2024-10-05T05:30:30.400128,15.34244317,.0001637,53.1593,259.3877,86.3214,273.7976,0,U,58392,999,5019,.12741E-3,.391E-4,0
STARLINK-30939,2023-178V,2024-10-05T08:32:03.064128,15.34217686,.0001391,53.1593,259.5525,82.0972,278.0188,0,U,58393,999,5003,.85144E-4,.2486E-4,0
STARLINK-30887,2023-178W,2024-10-05T04:04:00.443712,15.34232884,.0001426,53.1589,260.3512,94.6641,265.4524,0,U,58394,999,5015,.84289E-4,.2458E-4,0
STARLINK-30934,2023-178X,2024-10-05T05:23:50.800992,15.34217553,.0001413,53.1596,259.5234,82.3518,277.7645,0,U,58395,999,5012,-.15789E-4,-.906E-5,0
MALLIGYONG-1,2023-179A,2024-10-05T12:54:50.720256,15.21089848,.0010026,97.3847,164.4602,55.7195,304.4989,0,U,58400,999,4850,.62482E-3,.13856E-3,0
STARLINK-30964,2023-180A,2024-10-05T12:49:09.366816,15.02537262,.0001289,43.0033,2.1109,252.7500,107.3201,0,U,58402,999,4935,-.71641E-4,-.1171E-4,0
STARLINK-30844,2023-180B,2024-10-04T14:14:45.174624,15.02541927,.0001426,43.0039,7.9565,266.6905,93.3775,0,U,58403,999,4908,.4928E-4,.462E-5,0
STARLINK-30876,2023-180C,2024-10-05T12:30:10.187136,15.02521502,.0002887,43.0096,2.8730,267.1070,92.9442,0,U,58404,999,4934,-.29184E-4,-.598E-5,0
STARLINK-30952,2023-180D,2024-10-05T12:25:21.739872,15.02527277,.0002058,43.0077,2.8446,271.4358,88.6248,0,U,58405,999,4924,.21579E-3,.2712E-4,0
STARLINK-30925,2023-180E,2024-10-05T12:20:33.601920,15.02537226,.0000575,43.0030,2.8189,250.6489,109.4291,0,U,58406,999,4924,.13089E-3,.1565E-4,0
STARLINK-30954,2023-180F,2024-10-05T12:44:21.680736,15.02541238,.0000606,43.0027,2.0890,139.0282,221.0606,0,U,58407,999,4935,.25948E-3,.3304E-4,0
STARLINK-30906,2023-180G,2024-10-05T12:54:07.720704,15.02510236,.0002566,43.0073,2.8296,276.1540,83.9010,0,U,58408,999,4897,-.18676E-3,-.2724E-4,0
STARLINK-30940,2023-180H,2024-10-05T10:08:38.540256,15.25924577,.0001605,42.9981,319.6057,287.5574,72.5102,0,U,58409,999,4984,.47336E-4,.981E-5,0
STARLINK-30933,2023-180J,2024-10-05T11:40:02.938368,15.25876028,.0000661,43.0024,320.9397,240.9355,119.1430,0,U,58410,999,4983,-.43323E-3,-.1156E-3,0
STARLINK-30919,2023-180K,2024-10-05T05:02:56.705856,15.02534099,.0001389,43.0058,3.0589,282.7274,77.3413,0,U,58411,999,4922,-.15877E-4,-.418E-5,0
STARLINK-30924,2023-180L,2024-10-05T11:36:46.471680,15.25930851,.0001536,43.0016,320.9139,266.5127,93.5548,0,U,58412,999,4982,.12382E-3,.2985E-4,0
STARLINK-30931,2023-180M,2024-10-04T12:37:48.496800,15.02560140,.000117,43.0025,355.4559,286.9157,73.1557,0,U,58413,999,4933,-.23749E-4,-.525E-5,0
STARLINK-30922,2023-180N,2024-10-05T07:04:07.369536,15.02924517,.0000846,43.0018,3.7536,282.9632,77.1116,0,U,58414,999,4931,.4156E-2,.56981E-3,0
STARLINK-30949,2023-180P,2024-10-05T05:33:40.249440,15.02536015,.0000534,43.0014,4.1153,279.7558,80.3224,0,U,58415,999,4930,.44354E-4,.396E-5,0
STARLINK-30967,2023-180Q,2024-10-05T12:01:22.591488,15.02508973,.0001827,43.0034,2.7035,263.7202,96.3432,0,U,58416,999,4933,-.72281E-3,-.9947E-4,0
STARLINK-30955,2023-180R,2024-10-05T12:58:44.751936,15.02540173,.0002823,43.0040,2.1454,284.9944,75.0585,0,U,58417,999,4934,.16338E-3,.2004E-4,0
STARLINK-30895,2023-180S,2024-10-05T11:42:11.796192,15.02544922,.0001307,43.0040,2.6182,248.0009,112.0694,0,U,58418,999,4924,.37982E-3,.4932E-4,0
STARLINK-30917,2023-180T,2024-10-05T06:50:11.938560,15.02571590,.0001421,43.0043,3.6014,278.7328,81.3354,0,U,58419,999,4930,.11855E-2,.15862E-3,0
STARLINK-30899,2023-180U,2024-10-05T13:08:21.033024,15.02519707,.0001835,43.0032,2.2112,264.4548,95.6085,0,U,58420,999,4925,.14125E-4,-.13E-6,0
STARLINK-30902,2023-180V,2024-10-05T12:39:33.087456,15.02559937,.0000151,43.0030,2.0563,285.8986,74.1840,0,U,58421,999,4925,-.70806E-4,-.116E-4,0
STARLINK-30912,2023-180W,2024-10-05T04:35:51.652320,15.25879601,.0001094,43.0010,327.2687,209.4876,150.5913,0,U,58422,999,4997,.33631E-4,.622E-5,0
STARLINK-30900,2023-180X,2024-10-05T06:59:47.560416,15.02549449,.0003851,43.0008,3.6760,293.0748,66.9688,0,U,58423,999,4921,.45938E-3,.601E-4,0
STARLINK-30908,2023-180Y,2024-10-05T12:56:46.929120,15.02537680,.0001819,43.0028,1.2067,291.7344,68.3305,0,U,58424,999,4935,.22025E-3,.2773E-4,0
